#aV2016  4 16  0  0  0.00000000     288 DD+AD WGS84 FIT  NGA
## 1892 518400.00000000   300.00000000 57494 0.0000000000000
+   31     1  2  3  5  6  7  8  9 10 11 12 13 14 15 16 17 18
+         19 20 21 22 23 24 25 26 27 28 29 30 31 32  0  0  0
+          0  0  0  0  0  0  0  0  0  0  0  0  0  0  0  0  0
+          0  0  0  0  0  0  0  0  0  0  0  0  0  0  0  0  0
+          0  0  0  0  0  0  0  0  0  0  0  0  0  0  0  0  0
++         2  2  2  2  2  2  2  2  2  2  2  2  2  2  2  2  2
++         2  2  2  2  2  2  2  2  2  2  2  2  2  2  0  0  0
++         0  0  0  0  0  0  0  0  0  0  0  0  0  0  0  0  0
++         0  0  0  0  0  0  0  0  0  0  0  0  0  0  0  0  0
++         0  0  0  0  0  0  0  0  0  0  0  0  0  0  0  0  0
%c cc cc ccc ccc cccc cccc cccc cccc ccccc ccccc ccccc ccccc
%c cc cc ccc ccc cccc cccc cccc cccc ccccc ccccc ccccc ccccc
%f  0.0000000  0.000000000  0.00000000000  0.000000000000000
%f  0.0000000  0.000000000  0.00000000000  0.000000000000000
%i    0    0    0    0      0      0      0      0         0
%i    0    0    0    0      0      0      0      0         0
/*      NGA, ST. LOUIS,MO.                                  
/*   EPHEMERIS COMPUTED FROM 2 DAYS OF DATA                 
/*   EPOCHA v2.4 SMOOTHER                                   
/*   G1762 IERS2010 SATAF SATAPC                            
*  2016  4 16 16 40  0.00000000
P  1 -21467.100518 -14232.335301  -7035.345819     17.523243                    
V  1   9017.973694   1174.923123 -29987.168247      0.011505                    
P  2   2420.730993  16974.602977  20808.048653    596.753939                    
V  2 -24134.426932  -8016.548028   9149.477293     -0.018764                    
P  3 -13218.648098 -17125.250361  15409.668891    -48.139134                    
V  3   -623.337396 -19658.754894 -22396.411763     -0.040700                    
P  5   2561.680938  26262.999333   1789.507741   -128.442315                    
V  5  -3741.833223  -1844.431005  31456.660201      0.031726                    
P  6 -13691.191638   9836.251179  20538.661676    176.645659                    
V  6 -23774.669234 -10658.929558 -10749.283427      0.056493                    
P  7 -24988.209468  -4754.408996  -8192.764253    459.765713                    
V  7  -8725.812548  -6171.733532  29322.284113     -0.020197                    
P  8  -5119.355191 -14866.723553 -21346.985415    -31.627725                    
V  8  21761.991320 -16381.131929   6205.527928     -0.014795                    
P  9 -21756.464112   3854.776122  14731.751887    111.110146                    
V  9  13385.607545 -13304.437875  23205.491271      0.074393                    
P 10  11699.250256 -13951.577665 -19299.244669      0.401009                    
V 10   4734.906509  24141.835795 -14629.550026     -0.096038                    
P 11 -18468.341496 -12435.115323 -15067.542668   -641.117294                    
V 11  18451.451057  -2806.857704 -21034.681432     -0.030603                    
P 12  10306.696093  20767.263228  13034.639106    376.524425                    
V 12     -8.229891  16683.419909 -26105.021515      0.013610                    
P 13  -4206.391868  17955.108747 -19280.602869    -11.344383                    
V 13 -21207.638283  11583.236396  15432.827075     -0.027143                    
P 14  21137.920233 -15816.836367   2268.109930     -8.695142                    
V 14   3705.999149    924.879636 -31763.272641     -0.021235                    
P 15   9924.174860  12443.181301 -21377.587406   -306.738346                    
V 15 -20504.653984  17548.434512   1046.822738     -0.017320                    
P 16   -189.326263 -26235.785167   2292.558236    -24.131072                    
V 16   2371.292366   2909.327977  32501.388880      0.027523                    
P 17 -21820.242381  14938.305207   -523.086920   -203.154191                    
V 17   -571.508573  -2660.453798 -32204.082924     -0.002975                    
P 18  15809.778255   -518.591482 -20815.696205    505.346006                    
V 18   4390.913858  27462.224476   2324.210044      0.041836                    
P 19 -17445.214331  18153.906523   8807.195054   -525.629891                    
V 19 -10678.622769   4419.579962 -29105.324421     -0.000659                    
P 20  13509.168431  19581.290829 -11915.267557    406.360189                    
V 20     96.537703  15338.038164  25690.203448      0.024412                    
P 21  24350.631206   1285.299202 -10078.438715   -519.291745                    
V 21  11828.700537   7876.752213  27294.367062     -0.014785                    
P 22  -9142.732651 -24014.460820   6688.874827    361.410257                    
V 22   2457.905394  -8791.948135 -29406.922183     -0.074151                    
P 23 -16373.029257  -5864.153846  20368.853295   -169.662246                    
V 23  19516.242046 -16271.822261  10664.076515     -0.017302                    
P 24  19517.657542  15165.787873 -10034.756984    -15.600348                    
V 24 -12728.998444  -2036.935920 -27804.536266     -0.006755                    
P 25  14790.115850   9269.743178  19960.269836   -154.207357                    
V 25   2533.374479  25387.263282 -13396.285358     -0.070754                    
P 26   5372.608830 -22921.900589  12246.341457   -332.546568                    
V 26   4548.217349  15081.680898  26272.883240     -0.134895                    
P 27   5781.505605 -19394.379792 -17138.962068     82.838918                    
V 27  18153.877289 -12095.714653  20002.446416      0.039050                    
P 28 -12151.108854  12209.507628 -19576.946288    516.600054                    
V 28  -2564.127632 -26084.547723 -14270.989174      0.026177                    
P 29  20368.399831    -84.081813  17031.708208    656.923213                    
V 29 -16920.595331  13482.270715  20361.600371      0.002195                    
P 30 -20609.281235   2987.913813 -16547.941432    117.196768                    
V 30 -17974.204877 -10994.559746  20322.043511      0.034716                    
P 31  11538.354324 -10895.215507  21457.338104    273.446853                    
V 31  24398.121093  11353.161932  -7035.383195     -0.018416                    
P 32  20353.733901 -17015.879841   1191.102660      4.992610                    
V 32   2943.373040   1310.405223 -31696.563487     -0.033289                    
EOF
